[
    {
        "Altitude(m)": 576780.5799385061,
        "Argument of Periapsis(deg)": -0.037671934638287344,
        "Eccentricity": 0.0,
        "Inclination(deg)": 97.0,
        "Latitude(deg)": 80.42006332783092,
        "Longitude(deg)": 122.41730961041327,
        "Mean Anomaly(deg)": 96.66163878197915,
        "RAAN(deg)": 0.009911756030851284,
        "Satellite Name": "Starlink Shell 3 1590",
        "Satellite Number": 1590,
        "Semi-Major Axis(m)": 6938478.169268562,
        "Time(s)": 950
    },
    {
        "Altitude(m)": 576743.5945778394,
        "Argument of Periapsis(deg)": -0.03806848131869037,
        "Eccentricity": 0.0,
        "Inclination(deg)": 97.0,
        "Latitude(deg)": 79.98328115370666,
        "Longitude(deg)": 119.76772264362145,
        "Mean Anomaly(deg)": 97.28711497968419,
        "RAAN(deg)": 0.010016090304860243,
        "Satellite Name": "Starlink Shell 3 1590",
        "Satellite Number": 1590,
        "Semi-Major Axis(m)": 6938478.169268562,
        "Time(s)": 960
    },
    {
        "Altitude(m)": 576703.3578053848,
        "Argument of Periapsis(deg)": -0.0384650279990934,
        "Eccentricity": 0.0,
        "Inclination(deg)": 97.0,
        "Latitude(deg)": 79.52785460357254,
        "Longitude(deg)": 117.33821138618636,
        "Mean Anomaly(deg)": 97.91259117738923,
        "RAAN(deg)": 0.010120424578869205,
        "Satellite Name": "Starlink Shell 3 1590",
        "Satellite Number": 1590,
        "Semi-Major Axis(m)": 6938478.169268562,
        "Time(s)": 970
    },
    {
        "Altitude(m)": 576659.8923635453,
        "Argument of Periapsis(deg)": -0.03886157467949641,
        "Eccentricity": 0.0,
        "Inclination(deg)": 97.0,
        "Latitude(deg)": 79.05610670515708,
        "Longitude(deg)": 115.10886429164687,
        "Mean Anomaly(deg)": 98.53806737509426,
        "RAAN(deg)": 0.010224758852878164,
        "Satellite Name": "Starlink Shell 3 1590",
        "Satellite Number": 1590,
        "Semi-Major Axis(m)": 6938478.169268562,
        "Time(s)": 980
    },
    {
        "Altitude(m)": 576613.2228267498,
        "Argument of Periapsis(deg)": -0.03925812135989944,
        "Eccentricity": 0.0,
        "Inclination(deg)": 97.0,
        "Latitude(deg)": 78.57005366272799,
        "Longitude(deg)": 113.06070175072297,
        "Mean Anomaly(deg)": 99.16354357279931,
        "RAAN(deg)": 0.010329093126887127,
        "Satellite Name": "Starlink Shell 3 1590",
        "Satellite Number": 1590,
        "Semi-Major Axis(m)": 6938478.169268562,
        "Time(s)": 990
    }
]